{"type": "FeatureCollection", "features": [ {"type": "Feature", "properties": {"norad_id": 66958, "name": "CZ-6A R/B", "group": "last-30-days", "lat": 0.05012896087078871, "lon": -13.227627064011756, "alt_km": 936.8172766580265, "timestamp": "2025-12-10T23:33:11.624436+00:00", "meta": {"OBJECT_NAME": "CZ-6A R/B", "OBJECT_ID": "2025-287F", "EPOCH": "2025-12-10T14:56:42.203616", "MEAN_MOTION": 13.9491917, "ECCENTRICITY": 0.01071803, "INCLINATION": 86.5059, "RA_OF_ASC_NODE": 346.9056, "ARG_OF_PERICENTER": 108.4995, "MEAN_ANOMALY": 252.7862, "EPHEMERIS_TYPE": 0, "CLASSIFICATION_TYPE": "U", "NORAD_CAT_ID": 66958, "ELEMENT_SET_NO": 999, "REV_AT_EPOCH": 24, "BSTAR": 0.00061149217, "MEAN_MOTION_DOT": 8.8e-06, "MEAN_MOTION_DDOT": 0}, "tle": {"line1": "1 66958U 25287F   25344.62271069  .00000880  00000+0  61149-3 0  9998", "line2": "2 66958  86.5059 346.9056 0107180 108.4995 252.7862 13.94919170   247"}}, "geometry": {"type": "Point", "coordinates": [-13.227627064011756, 0.05012896087078871]}}, {"type": "Feature", "properties": {"norad_id": 66988, "name": "YAOGAN-47", "group": "last-30-days", "lat": 77.71622243401139, "lon": 12.724832953129658, "alt_km": 487.8520586571458, "timestamp": "2025-12-10T23:33:11.624447+00:00", "meta": {"OBJECT_NAME": "YAOGAN-47", "OBJECT_ID": "2025-289A", "EPOCH": "2025-12-10T10:35:37.042080", "MEAN_MOTION": 15.2375358, "ECCENTRICITY": 0.0003184, "INCLINATION": 97.5219, "RA_OF_ASC_NODE": 49.5452, "ARG_OF_PERICENTER": 188.4341, "MEAN_ANOMALY": 171.6843, "EPHEMERIS_TYPE": 0, "CLASSIFICATION_TYPE": "U", "NORAD_CAT_ID": 66988, "ELEMENT_SET_NO": 999, "REV_AT_EPOCH": 19, "BSTAR": 0.00024588, "MEAN_MOTION_DOT": 5.84e-05, "MEAN_MOTION_DDOT": 0}, "tle": {"line1": "1 66988U 25289A   25344.44140095  .00005840  00000+0  24588-3 0  9994", "line2": "2 66988  97.5219  49.5452 0003184 188.4341 171.6843 15.23753580   195"}}, "geometry": {"type": "Point", "coordinates": [12.724832953129658, 77.71622243401139]}}, {"type": "Feature", "properties": {"norad_id": 66989, "name": "CZ-4B R/B", "group": "last-30-days", "lat": -28.6518098430551, "lon": 54.33210449164765, "alt_km": 294.5656064239329, "timestamp": "2025-12-10T23:33:11.624457+00:00", "meta": {"OBJECT_NAME": "CZ-4B R/B", "OBJECT_ID": "2025-289B", "EPOCH": "2025-12-10T14:28:25.391424", "MEAN_MOTION": 15.66309569, "ECCENTRICITY": 0.0151881, "INCLINATION": 97.5238, "RA_OF_ASC_NODE": 49.786, "ARG_OF_PERICENTER": 11.0923, "MEAN_ANOMALY": 349.3621, "EPHEMERIS_TYPE": 0, "CLASSIFICATION_TYPE": "U", "NORAD_CAT_ID": 66989, "ELEMENT_SET_NO": 999, "REV_AT_EPOCH": 23, "BSTAR": 0.00027358702, "MEAN_MOTION_DOT": 0.00052933, "MEAN_MOTION_DDOT": 2.979385e-06}, "tle": {"line1": "1 66989U 25289B   25344.60307166  .00052933  29794-5  27359-3 0  9998", "line2": "2 66989  97.5238  49.7860 0151881  11.0923 349.3621 15.66309569   231"}}, "geometry": {"type": "Point", "coordinates": [54.33210449164765, -28.6518098430551]}}, {"type": "Feature", "properties": {"norad_id": 66990, "name": "TJS-22", "group": "last-30-days", "lat": 18.992882609141084, "lon": 51.22992113438477, "alt_km": 5271.850329094034, "timestamp": "2025-12-10T23:33:11.624469+00:00", "meta": {"OBJECT_NAME": "TJS-22", "OBJECT_ID": "2025-290A", "EPOCH": "2025-12-10T07:11:32.843616", "MEAN_MOTION": 2.15443148, "ECCENTRICITY": 0.6664534, "INCLINATION": 20.1261, "RA_OF_ASC_NODE": 301.1464, "ARG_OF_PERICENTER": 180.6877, "MEAN_ANOMALY": 177.6237, "EPHEMERIS_TYPE": 0, "CLASSIFICATION_TYPE": "U", "NORAD_CAT_ID": 66990, "ELEMENT_SET_NO": 999, "REV_AT_EPOCH": 3, "BSTAR": 0.079788, "MEAN_MOTION_DOT": -3.8e-07, "MEAN_MOTION_DDOT": 0}, "tle": {"line1": "1 66990U 25290A   25344.29968569 -.00000038  00000+0  79788-1 0  9991", "line2": "2 66990  20.1261 301.1464 6664534 180.6877 177.6237  2.15443148    32"}}, "geometry": {"type": "Point", "coordinates": [51.22992113438477, 18.992882609141084]}}, {"type": "Feature", "properties": {"norad_id": 66991, "name": "CZ-3B R/B", "group": "last-30-days", "lat": -16.18685907338002, "lon": -90.0309201489332, "alt_km": 21091.51886768864, "timestamp": "2025-12-10T23:33:11.624480+00:00", "meta": {"OBJECT_NAME": "CZ-3B R/B", "OBJECT_ID": "2025-290B", "EPOCH": "2025-12-10T06:44:55.577184", "MEAN_MOTION": 2.37676924, "ECCENTRICITY": 0.7242056, "INCLINATION": 28.4645, "RA_OF_ASC_NODE": 302.5976, "ARG_OF_PERICENTER": 179.3847, "MEAN_ANOMALY": 182.8677, "EPHEMERIS_TYPE": 0, "CLASSIFICATION_TYPE": "U", "NORAD_CAT_ID": 66991, "ELEMENT_SET_NO": 999, "REV_AT_EPOCH": 3, "BSTAR": 0.00043781, "MEAN_MOTION_DOT": 0.00018897, "MEAN_MOTION_DDOT": 4.5621e-07}, "tle": {"line1": "1 66991U 25290B   25344.28119881  .00018897  45621-6  43781-3 0  9998", "line2": "2 66991  28.4645 302.5976 7242056 179.3847 182.8677  2.37676924    37"}}, "geometry": {"type": "Point", "coordinates": [-90.0309201489332, -16.18685907338002]}}]}